{
  "type": "FeatureCollection",
  "features": [
    {
      "type": "Feature",
      "properties": {
        "norad_id": 58701,
        "name": "TIANMU-1 16",
        "group": "weather",
        "lat": -40.48821346232155,
        "lon": 170.77597709301955,
        "alt_km": 496.1363959384271,
        "timestamp": "2025-12-09T11:33:54.443431+00:00",
        "meta_object_name": "TIANMU-1 16",
        "meta_object_id": "2024-004B",
        "meta_epoch": "2025-12-09T03:52:00.846624",
        "meta_mean_motion": 15.24356847,
        "meta_eccentricity": 0.0004659,
        "meta_inclination": 97.4569,
        "meta_ra_of_asc_node": 164.0366,
        "meta_arg_of_pericenter": 312.0831,
        "meta_mean_anomaly": 48.0009,
        "meta_ephemeris_type": 0,
        "meta_classification_type": "U",
        "meta_norad_cat_id": 58701,
        "meta_element_set_no": 999,
        "meta_rev_at_epoch": 10680,
        "meta_bstar": 0.00035186,
        "meta_mean_motion_dot": 8.546e-05,
        "meta_mean_motion_ddot": 0,
        "tle_line1": "1 58701U 24004B   25343.16112091  .00008546  00000+0  35186-3 0  9997",
        "tle_line2": "2 58701  97.4569 164.0366 0004659 312.0831  48.0009 15.24356847106802"
      },
      "geometry": {
        "type": "Point",
        "coordinates": [
          170.77597709301955,
          -40.48821346232155
        ]
      }
    },
    {
      "type": "Feature",
      "properties": {
        "norad_id": 58702,
        "name": "TIANMU-1 17",
        "group": "weather",
        "lat": 42.66560461989047,
        "lon": 157.82722186229836,
        "alt_km": 489.05080536683363,
        "timestamp": "2025-12-09T11:33:54.443447+00:00",
        "meta_object_name": "TIANMU-1 17",
        "meta_object_id": "2024-004C",
        "meta_epoch": "2025-12-09T05:04:30.317664",
        "meta_mean_motion": 15.24402274,
        "meta_eccentricity": 0.0003872,
        "meta_inclination": 97.4604,
        "meta_ra_of_asc_node": 164.4949,
        "meta_arg_of_pericenter": 315.6663,
        "meta_mean_anomaly": 44.4264,
        "meta_ephemeris_type": 0,
        "meta_classification_type": "U",
        "meta_norad_cat_id": 58702,
        "meta_element_set_no": 999,
        "meta_rev_at_epoch": 10680,
        "meta_bstar": 0.00036138,
        "meta_mean_motion_dot": 8.791e-05,
        "meta_mean_motion_ddot": 0,
        "tle_line1": "1 58702U 24004C   25343.21146201  .00008791  00000+0  36138-3 0  9994",
        "tle_line2": "2 58702  97.4604 164.4949 0003872 315.6663  44.4264 15.24402274106801"
      },
      "geometry": {
        "type": "Point",
        "coordinates": [
          157.82722186229836,
          42.66560461989047
        ]
      }
    },
    {
      "type": "Feature",
      "properties": {
        "norad_id": 58703,
        "name": "TIANMU-1 18",
        "group": "weather",
        "lat": 44.620878342657306,
        "lon": -7.609384281662801,
        "alt_km": 491.0883085390269,
        "timestamp": "2025-12-09T11:33:54.443464+00:00",
        "meta_object_name": "TIANMU-1 18",
        "meta_object_id": "2024-004D",
        "meta_epoch": "2025-12-09T04:40:26.317920",
        "meta_mean_motion": 15.24391126,
        "meta_eccentricity": 0.0003242,
        "meta_inclination": 97.4621,
        "meta_ra_of_asc_node": 164.6728,
        "meta_arg_of_pericenter": 317.0216,
        "meta_mean_anomaly": 43.0767,
        "meta_ephemeris_type": 0,
        "meta_classification_type": "U",
        "meta_norad_cat_id": 58703,
        "meta_element_set_no": 999,
        "meta_rev_at_epoch": 10680,
        "meta_bstar": 0.00036858,
        "meta_mean_motion_dot": 8.964e-05,
        "meta_mean_motion_ddot": 0,
        "tle_line1": "1 58703U 24004D   25343.19474905  .00008964  00000+0  36858-3 0  9998",
        "tle_line2": "2 58703  97.4621 164.6728 0003242 317.0216  43.0767 15.24391126106805"
      },
      "geometry": {
        "type": "Point",
        "coordinates": [
          -7.609384281662801,
          44.620878342657306
        ]
      }
    },
    {
      "type": "Feature",
      "properties": {
        "norad_id": 58990,
        "name": "INSAT-3DS",
        "group": "weather",
        "lat": -0.011009941965807159,
        "lon": -25.95800562812217,
        "alt_km": 35784.265783518786,
        "timestamp": "2025-12-09T11:33:54.443482+00:00",
        "meta_object_name": "INSAT-3DS",
        "meta_object_id": "2024-033A",
        "meta_epoch": "2025-12-09T03:41:28.376160",
        "meta_mean_motion": 1.00269594,
        "meta_eccentricity": 0.000165,
        "meta_inclination": 0.019,
        "meta_ra_of_asc_node": 85.8021,
        "meta_arg_of_pericenter": 178.7722,
        "meta_mean_anomaly": 311.0239,
        "meta_ephemeris_type": 0,
        "meta_classification_type": "U",
        "meta_norad_cat_id": 58990,
        "meta_element_set_no": 999,
        "meta_rev_at_epoch": 4516,
        "meta_bstar": 0,
        "meta_mean_motion_dot": -1.53e-06,
        "meta_mean_motion_ddot": 0,
        "tle_line1": "1 58990U 24033A   25343.15380065 -.00000153  00000+0  00000+0 0  9996",
        "tle_line2": "2 58990   0.0190  85.8021 0001650 178.7722 311.0239  1.00269594 45164"
      },
      "geometry": {
        "type": "Point",
        "coordinates": [
          -25.95800562812217,
          -0.011009941965807159
        ]
      }
    },
    {
      "type": "Feature",
      "properties": {
        "norad_id": 59051,
        "name": "METEOR-M2 4",
        "group": "weather",
        "lat": 62.869133385772926,
        "lon": -76.89502115542498,
        "alt_km": 808.2007276905024,
        "timestamp": "2025-12-09T11:33:54.443503+00:00",
        "meta_object_name": "METEOR-M2 4",
        "meta_object_id": "2024-039A",
        "meta_epoch": "2025-12-09T04:30:42.551136",
        "meta_mean_motion": 14.22400319,
        "meta_eccentricity": 0.0007241,
        "meta_inclination": 98.6761,
        "meta_ra_of_asc_node": 300.1527,
        "meta_arg_of_pericenter": 8.6892,
        "meta_mean_anomaly": 351.441,
        "meta_ephemeris_type": 0,
        "meta_classification_type": "U",
        "meta_norad_cat_id": 59051,
        "meta_element_set_no": 999,
        "meta_rev_at_epoch": 9225,
        "meta_bstar": 5.3999e-05,
        "meta_mean_motion_dot": 7.7e-07,
        "meta_mean_motion_ddot": 0,
        "tle_line1": "1 59051U 24039A   25343.18799249  .00000077  00000+0  53999-4 0  9996",
        "tle_line2": "2 59051  98.6761 300.1527 0007241   8.6892 351.4410 14.22400319 92256"
      },
      "geometry": {
        "type": "Point",
        "coordinates": [
          -76.89502115542498,
          62.869133385772926
        ]
      }
    },
    {
      "type": "Feature",
      "properties": {
        "norad_id": 60133,
        "name": "GOES 19",
        "group": "weather",
        "lat": 0.0015323781718548175,
        "lon": 176.75113762119432,
        "alt_km": 35789.717984689596,
        "timestamp": "2025-12-09T11:33:54.443521+00:00",
        "meta_object_name": "GOES 19",
        "meta_object_id": "2024-119A",
        "meta_epoch": "2025-12-09T03:56:38.639904",
        "meta_mean_motion": 1.00271379,
        "meta_eccentricity": 0.0001361,
        "meta_inclination": 0.0148,
        "meta_ra_of_asc_node": 159.5748,
        "meta_arg_of_pericenter": 144.8903,
        "meta_mean_anomaly": 117.6735,
        "meta_ephemeris_type": 0,
        "meta_classification_type": "U",
        "meta_norad_cat_id": 60133,
        "meta_element_set_no": 999,
        "meta_rev_at_epoch": 505,
        "meta_bstar": 0,
        "meta_mean_motion_dot": -2.46e-06,
        "meta_mean_motion_ddot": 0,
        "tle_line1": "1 60133U 24119A   25343.16433611 -.00000246  00000+0  00000+0 0  9993",
        "tle_line2": "2 60133   0.0148 159.5748 0001361 144.8903 117.6735  1.00271379  5057"
      },
      "geometry": {
        "type": "Point",
        "coordinates": [
          176.75113762119432,
          0.0015323781718548175
        ]
      }
    },
    {
      "type": "Feature",
      "properties": {
        "norad_id": 65815,
        "name": "FENGYUN 3H",
        "group": "weather",
        "lat": -27.445336867942114,
        "lon": -72.31816175022547,
        "alt_km": 831.5532938334209,
        "timestamp": "2025-12-09T11:33:54.443538+00:00",
        "meta_object_name": "FENGYUN 3H",
        "meta_object_id": "2025-219A",
        "meta_epoch": "2025-12-09T03:14:22.781760",
        "meta_mean_motion": 14.19902981,
        "meta_eccentricity": 6.05e-05,
        "meta_inclination": 98.658,
        "meta_ra_of_asc_node": 282.8038,
        "meta_arg_of_pericenter": 84.326,
        "meta_mean_anomaly": 275.7985,
        "meta_ephemeris_type": 0,
        "meta_classification_type": "U",
        "meta_norad_cat_id": 65815,
        "meta_element_set_no": 999,
        "meta_rev_at_epoch": 1041,
        "meta_bstar": 9.9066e-05,
        "meta_mean_motion_dot": 1.67e-06,
        "meta_mean_motion_ddot": 0,
        "tle_line1": "1 65815U 25219A   25343.13498590  .00000167  00000+0  99066-4 0  9997",
        "tle_line2": "2 65815  98.6580 282.8038 0000605  84.3260 275.7985 14.19902981 10411"
      },
      "geometry": {
        "type": "Point",
        "coordinates": [
          -72.31816175022547,
          -27.445336867942114
        ]
      }
    }
  ]
}